[{"OBJECT_NAME":"STARLINK-5010","OBJECT_ID":"2022-119AW","EPOCH":"2026-03-09T22:05:11.244192","MEAN_MOTION":15.08846291,"ECCENTRICITY":0.00015003,"INCLINATION":53.2184,"RA_OF_ASC_NODE":302.8284,"ARG_OF_PERICENTER":85.0705,"MEAN_ANOMALY":275.0458,"EPHEMERIS_TYPE":0,"CLASSIFICATION_TYPE":"U","NORAD_CAT_ID":53930,"ELEMENT_SET_NO":999,"REV_AT_EPOCH":19200,"BSTAR":5.1761978e-5,"MEAN_MOTION_DOT":5.36e-6,"MEAN_MOTION_DDOT":0},{"OBJECT_NAME":"FENGYUN 1C DEB","OBJECT_ID":"1999-025BNW","EPOCH":"2026-03-06T10:01:07.743936","MEAN_MOTION":15.11996262,"ECCENTRICITY":0.00143439,"INCLINATION":98.7438,"RA_OF_ASC_NODE":239.2093,"ARG_OF_PERICENTER":346.0612,"MEAN_ANOMALY":44.2284,"EPHEMERIS_TYPE":0,"CLASSIFICATION_TYPE":"U","NORAD_CAT_ID":31288,"ELEMENT_SET_NO":999,"REV_AT_EPOCH":98814,"BSTAR":0.0072973407,"MEAN_MOTION_DOT":0.00127645,"MEAN_MOTION_DDOT":0}]
